[{"OBJECT_NAME":"STARLINK-2620","OBJECT_ID":"2021-040AB","EPOCH":"2026-03-09T14:50:18.769920","MEAN_MOTION":15.3020834,"ECCENTRICITY":0.0002071,"INCLINATION":53.1616,"RA_OF_ASC_NODE":178.4535,"ARG_OF_PERICENTER":50.3086,"MEAN_ANOMALY":309.8098,"EPHEMERIS_TYPE":0,"CLASSIFICATION_TYPE":"U","NORAD_CAT_ID":48453,"ELEMENT_SET_NO":999,"REV_AT_EPOCH":26667,"BSTAR":0.00047094,"MEAN_MOTION_DOT":0.00013618,"MEAN_MOTION_DDOT":0},{"OBJECT_NAME":"TEVEL2-3","OBJECT_ID":"2025-052J","EPOCH":"2026-03-09T15:29:22.754400","MEAN_MOTION":15.30377031,"ECCENTRICITY":0.0004761,"INCLINATION":97.3994,"RA_OF_ASC_NODE":324.7775,"ARG_OF_PERICENTER":105.7353,"MEAN_ANOMALY":254.4413,"EPHEMERIS_TYPE":0,"CLASSIFICATION_TYPE":"U","NORAD_CAT_ID":63218,"ELEMENT_SET_NO":999,"REV_AT_EPOCH":5485,"BSTAR":0.00069446,"MEAN_MOTION_DOT":0.00020365,"MEAN_MOTION_DDOT":0}]
